OBJECT_NAME,OBJECT_ID,EPOCH,MEAN_MOTION,ECCENTRICITY,INCLINATION,RA_OF_ASC_NODE,ARG_OF_PERICENTER,MEAN_ANOMALY,EPHEMERIS_TYPE,CLASSIFICATION_TYPE,NORAD_CAT_ID,ELEMENT_SET_NO,REV_AT_EPOCH,BSTAR,MEAN_MOTION_DOT,MEAN_MOTION_DDOT
SWARM B,2013-067A,2026-07-17T15:21:03.571488,15.28726152,.00022492,87.7462,333.0661,84.8534,275.2972,0,U,39451,999,68789,.65964235E-4,.1877E-4,0
SWARM A,2013-067B,2026-07-17T14:29:49.716960,15.51486566,.00033324,87.3296,44.9299,92.5539,267.6104,0,U,39452,999,71096,.946854E-4,.5634E-4,0
SWARM C,2013-067C,2026-07-17T14:29:41.749152,15.51485988,.00033284,87.3296,43.5107,92.7536,267.4106,0,U,39453,999,71092,.95629753E-4,.5689E-4,0
BRITE-CA1 (TORONTO),2014-033L,2026-07-16T22:23:37.948704,14.72724463,.00785752,97.9774,326.3188,180.6925,179.4187,0,U,40020,999,64659,.83590365E-4,.506E-5,0
OCO 2,2014-035A,2026-07-17T13:49:13.526400,14.57133196,.00014305,98.2020,139.4076,81.0893,279.0467,0,U,40059,999,64047,.46044422E-4,.162E-5,0
BRITE-PL2 (HEWELIUSZ),2014-049B,2026-07-16T21:31:13.773216,14.94689258,.00141718,97.9120,310.1310,16.6624,343.5058,0,U,40119,999,64588,.50494606E-4,.489E-5,0
MMS 1,2015-011A,2026-07-17T16:00:03.000096,0.28341307,.83024465,72.4613,348.4251,168.1032,167.6117,0,U,40482,999,136,0,-.1324E-4,0
MMS 2,2015-011B,2026-07-17T16:00:03.000096,0.28341252,.83052591,72.4652,348.4241,168.1059,167.5987,0,U,40483,999,136,0,-.1325E-4,0
MMS 3,2015-011C,2026-07-17T16:00:03.000096,0.28341259,.83036281,72.4650,348.4359,168.1137,167.5727,0,U,40484,999,133,0,-.1324E-4,0
MMS 4,2015-011D,2026-07-17T16:00:03.000096,0.28341288,.83035798,72.4605,348.4194,168.1236,167.5682,0,U,40485,999,136,0,-.1324E-4,0
ASTROSAT,2015-052A,2026-07-17T13:34:50.100096,14.82553913,.00074042,5.9973,296.6869,110.4310,249.6614,0,U,40930,999,58434,.4655289E-4,.1053E-4,0
DAMPE,2015-078A,2026-07-17T13:31:47.969760,15.30856811,.0011337,97.4558,204.1822,336.9535,23.1195,0,U,41173,999,58919,.23798378E-4,.632E-5,0
PISAT,2016-059B,2026-07-17T10:55:06.822048,14.69031877,.00305071,97.8192,197.6092,107.9355,252.5181,0,U,41784,999,52418,.79782818E-4,.424E-5,0
HXMT (HUIYAN),2017-034A,2026-07-17T15:40:54.883200,15.18700596,.00319956,43.0153,13.3671,336.1296,23.8068,0,U,42758,999,50229,.10450314E-3,.1988E-4,0
FLYING LAPTOP,2017-042G,2026-07-17T15:30:24.062976,15.01322777,.00195993,97.4818,353.0350,24.7102,335.5057,0,U,42831,999,49102,.16181533E-3,.2033E-4,0
ZHANGHENG 1-01 (CSES-1),2018-015C,2026-07-17T14:26:32.508960,15.20626356,.00166011,97.6896,4.8682,156.8936,203.3049,0,U,43194,999,46926,.17537698E-3,.3786E-4,0
SALSAT,2020-068K,2026-07-16T23:14:24.421344,15.30186484,.00093844,97.8858,202.8562,186.4299,173.6821,0,U,46495,999,31991,.1366282E-3,.3909E-4,0
IXPE,2021-121A,2026-07-17T16:00:03.000096,15.10501079,.00066966,0.2304,86.7826,181.1547,3.0741,0,U,49954,999,579,.28181651E-3,.5701E-4,0
SMILE,2026-109A,2026-07-13T23:01:31.580256,0.47500629,.83137076,70.0512,206.6048,286.9544,0.1879,0,U,69123,999,6,0,.936E-5,0
