SWARM B                 
1 39451U 13067A   26198.63962467  .00001877  00000+0  65964-4 0  9994
2 39451  87.7462 333.0661 0002249  84.8534 275.2972 15.28726152687890
SWARM A                 
1 39452U 13067B   26198.60404765  .00005634  00000+0  94685-4 0  9991
2 39452  87.3296  44.9299 0003332  92.5539 267.6104 15.51486566710967
SWARM C                 
1 39453U 13067C   26198.60395543  .00005689  00000+0  95630-4 0  9996
2 39453  87.3296  43.5107 0003328  92.7536 267.4106 15.51485988710928
BRITE-CA1 (TORONTO)     
1 40020U 14033L   26197.93307811  .00000506  00000+0  83590-4 0  9993
2 40020  97.9774 326.3188 0078575 180.6925 179.4187 14.72724463646592
OCO 2                   
1 40059U 14035A   26198.57585100  .00000162  00000+0  46044-4 0  9998
2 40059  98.2020 139.4076 0001430  81.0893 279.0467 14.57133196640474
BRITE-PL2 (HEWELIUSZ)   
1 40119U 14049B   26197.89668719  .00000489  00000+0  50495-4 0  9999
2 40119  97.9120 310.1310 0014171  16.6624 343.5058 14.94689258645888
MMS 1                   
1 40482U 15011A   26198.66670139 -.00001324  00000+0  00000+0 0  9999
2 40482  72.4613 348.4251 8302446 168.1032 167.6117  0.28341307  1365
MMS 2                   
1 40483U 15011B   26198.66670139 -.00001325  00000+0  00000+0 0  9991
2 40483  72.4652 348.4241 8305259 168.1059 167.5987  0.28341252  1365
MMS 3                   
1 40484U 15011C   26198.66670139 -.00001324  00000+0  00000+0 0  9991
2 40484  72.4650 348.4359 8303628 168.1137 167.5727  0.28341259  1335
MMS 4                   
1 40485U 15011D   26198.66670139 -.00001324  00000+0  00000+0 0  9992
2 40485  72.4605 348.4194 8303579 168.1236 167.5682  0.28341288  1363
ASTROSAT                
1 40930U 15052A   26198.56585764  .00001053  00000+0  46553-4 0  9996
2 40930   5.9973 296.6869 0007404 110.4310 249.6614 14.82553913584349
DAMPE                   
1 41173U 15078A   26198.56374965  .00000632  00000+0  23798-4 0  9991
2 41173  97.4558 204.1822 0011337 336.9535  23.1195 15.30856811589195
PISAT                   
1 41784U 16059B   26198.45494007  .00000424  00000+0  79783-4 0  9991
2 41784  97.8192 197.6092 0030507 107.9355 252.5181 14.69031877524181
HXMT (HUIYAN)           
1 42758U 17034A   26198.65341300  .00001988  00000+0  10450-3 0  9997
2 42758  43.0153  13.3671 0031995 336.1296  23.8068 15.18700596502299
FLYING LAPTOP           
1 42831U 17042G   26198.64611184  .00002033  00000+0  16182-3 0  9997
2 42831  97.4818 353.0350 0019599  24.7102 335.5057 15.01322777491024
ZHANGHENG 1-01 (CSES-1) 
1 43194U 18015C   26198.60176515  .00003786  00000+0  17538-3 0  9993
2 43194  97.6896   4.8682 0016601 156.8936 203.3049 15.20626356469262
SALSAT                  
1 46495U 20068K   26197.96833821  .00003909  00000+0  13663-3 0  9991
2 46495  97.8858 202.8562 0009384 186.4299 173.6821 15.30186484319914
IXPE                    
1 49954U 21121A   26198.66670139  .00005701  00000+0  28182-3 0  9998
2 49954   0.2304  86.7826 0006696 181.1547   3.0741 15.10501079  5798
SMILE                   
1 69123U 26109A   26194.95939329  .00000936  00000+0  00000+0 0  9996
2 69123  70.0512 206.6048 8313707 286.9544   0.1879  0.47500629    65
